[{"OBJECT_NAME":"2026-083E","OBJECT_ID":"2026-083E","EPOCH":"2026-04-17T03:50:04.293888","MEAN_MOTION":15.23009713,"ECCENTRICITY":0.00617028,"INCLINATION":98.2473,"RA_OF_ASC_NODE":252.4151,"ARG_OF_PERICENTER":80.1499,"MEAN_ANOMALY":280.6695,"EPHEMERIS_TYPE":0,"CLASSIFICATION_TYPE":"U","NORAD_CAT_ID":68757,"ELEMENT_SET_NO":999,"REV_AT_EPOCH":3,"BSTAR":6.3260824e-5,"MEAN_MOTION_DOT":1.477e-5,"MEAN_MOTION_DDOT":0},{"OBJECT_NAME":"2026-083F","OBJECT_ID":"2026-083F","EPOCH":"2026-04-19T13:15:29.712672","MEAN_MOTION":15.06564799,"ECCENTRICITY":0.00101762,"INCLINATION":96.9505,"RA_OF_ASC_NODE":249.5903,"ARG_OF_PERICENTER":248.8572,"MEAN_ANOMALY":111.157,"EPHEMERIS_TYPE":0,"CLASSIFICATION_TYPE":"U","NORAD_CAT_ID":68758,"ELEMENT_SET_NO":999,"REV_AT_EPOCH":37,"BSTAR":0.0001030144,"MEAN_MOTION_DOT":1.472e-5,"MEAN_MOTION_DDOT":0},{"OBJECT_NAME":"2026-083G","OBJECT_ID":"2026-083G","EPOCH":"2026-04-19T13:15:24.165792","MEAN_MOTION":15.06606507,"ECCENTRICITY":0.00103617,"INCLINATION":96.951,"RA_OF_ASC_NODE":249.593,"ARG_OF_PERICENTER":248.8699,"MEAN_ANOMALY":111.1423,"EPHEMERIS_TYPE":0,"CLASSIFICATION_TYPE":"U","NORAD_CAT_ID":68759,"ELEMENT_SET_NO":999,"REV_AT_EPOCH":36,"BSTAR":0.00010446849,"MEAN_MOTION_DOT":1.496e-5,"MEAN_MOTION_DDOT":0},{"OBJECT_NAME":"DAQI-2","OBJECT_ID":"2026-084A","EPOCH":"2026-04-19T03:15:08.628192","MEAN_MOTION":14.61978622,"ECCENTRICITY":0.0004852,"INCLINATION":98.2883,"RA_OF_ASC_NODE":183.5451,"ARG_OF_PERICENTER":219.7145,"MEAN_ANOMALY":140.3701,"EPHEMERIS_TYPE":0,"CLASSIFICATION_TYPE":"U","NORAD_CAT_ID":68760,"ELEMENT_SET_NO":999,"REV_AT_EPOCH":29,"BSTAR":1.5616e-5,"MEAN_MOTION_DOT":3.0e-7,"MEAN_MOTION_DDOT":0},{"OBJECT_NAME":"2026-083H","OBJECT_ID":"2026-083H","EPOCH":"2026-04-19T13:15:01.888416","MEAN_MOTION":15.06773997,"ECCENTRICITY":0.00110962,"INCLINATION":96.9504,"RA_OF_ASC_NODE":249.5902,"ARG_OF_PERICENTER":249.1289,"MEAN_ANOMALY":110.8753,"EPHEMERIS_TYPE":0,"CLASSIFICATION_TYPE":"U","NORAD_CAT_ID":68762,"ELEMENT_SET_NO":999,"REV_AT_EPOCH":37,"BSTAR":0.00010508861,"MEAN_MOTION_DOT":1.512e-5,"MEAN_MOTION_DDOT":0},{"OBJECT_NAME":"2026-083J","OBJECT_ID":"2026-083J","EPOCH":"2026-04-19T13:14:56.014080","MEAN_MOTION":15.0681801,"ECCENTRICITY":0.00112875,"INCLINATION":96.9509,"RA_OF_ASC_NODE":249.593,"ARG_OF_PERICENTER":249.0758,"MEAN_ANOMALY":110.9264,"EPHEMERIS_TYPE":0,"CLASSIFICATION_TYPE":"U","NORAD_CAT_ID":68763,"ELEMENT_SET_NO":999,"REV_AT_EPOCH":37,"BSTAR":0.0001027403,"MEAN_MOTION_DOT":1.479e-5,"MEAN_MOTION_DDOT":0},{"OBJECT_NAME":"2026-083K","OBJECT_ID":"2026-083K","EPOCH":"2026-04-19T13:14:48.695136","MEAN_MOTION":15.06873292,"ECCENTRICITY":0.00106319,"INCLINATION":96.9508,"RA_OF_ASC_NODE":249.5923,"ARG_OF_PERICENTER":245.0557,"MEAN_ANOMALY":114.9568,"EPHEMERIS_TYPE":0,"CLASSIFICATION_TYPE":"U","NORAD_CAT_ID":68764,"ELEMENT_SET_NO":999,"REV_AT_EPOCH":37,"BSTAR":0.00010784147,"MEAN_MOTION_DOT":1.557e-5,"MEAN_MOTION_DDOT":0},{"OBJECT_NAME":"SPACEMOBILE-007","OBJECT_ID":"2026-085A","EPOCH":"2026-04-19T11:38:04.280928","MEAN_MOTION":15.82286134,"ECCENTRICITY":0.02531,"INCLINATION":36.105,"RA_OF_ASC_NODE":170.3509,"ARG_OF_PERICENTER":160.145,"MEAN_ANOMALY":346.983,"EPHEMERIS_TYPE":0,"CLASSIFICATION_TYPE":"U","NORAD_CAT_ID":68765,"ELEMENT_SET_NO":999,"REV_AT_EPOCH":0,"BSTAR":0,"MEAN_MOTION_DOT":0,"MEAN_MOTION_DDOT":0}]
